IRIDIUM 135             
1 43070U 17083A   26154.96531418  .00000048  00000+0  10173-4 0  9995
2 43070  86.3960 327.5456 0002180  90.5448 269.5998 14.34218210442252
IRIDIUM 138             
1 43071U 17083B   26154.99068372  .00000114  00000+0  33684-4 0  9999
2 43071  86.3952 327.2239 0002540  89.0253 271.1233 14.34217287442240
IRIDIUM 116             
1 43072U 17083C   26154.54035695  .00000057  00000+0  13424-4 0  9999
2 43072  86.3955 327.7086 0001863  92.8013 267.3396 14.34218702442219
IRIDIUM 130             
1 43073U 17083D   26155.97378468  .00000234  00000+0  76476-4 0  9999
2 43073  86.3966 327.3835 0001980  86.1851 273.9572 14.34219459442361
IRIDIUM 151             
1 43074U 17083E   26154.97165630  .00000100  00000+0  28655-4 0  9992
2 43074  86.3961 327.5863 0002174  92.3398 267.8046 14.34217394442242
IRIDIUM 134             
1 43075U 17083F   26156.19577713  .00000107  00000+0  31056-4 0  9994
2 43075  86.3960 327.0818 0002095  88.7292 271.4144 14.34218447442386
IRIDIUM 137             
1 43076U 17083G   26154.53401498  .00000085  00000+0  23380-4 0  9993
2 43076  86.3960 327.8694 0001896 101.3050 258.8359 14.34218432442212
IRIDIUM 141             
1 43077U 17083H   26156.20211977 -.00000042  00000+0 -21915-4 0  9998
2 43077  86.3951 327.0029 0002089  91.3451 268.7984 14.34217276442450
IRIDIUM 153             
1 43078U 17083J   26156.08453093  .00000040  00000+0  72131-5 0  9995
2 43078  86.3950 295.5319 0002367  89.9916 270.1551 14.34217689443545
IRIDIUM 131             
1 43079U 17083K   26156.18943432 -.00000073  00000+0 -33219-4 0  9999
2 43079  86.3958 327.1937 0002065  91.9715 268.1717 14.34217469442385
IRIDIUM 144             
1 43249U 18030A   26154.48619444  .00000111  00000+0  32579-4 0  9994
2 43249  86.3955 296.1314 0002040  93.0281 267.1149 14.34218560428171
IRIDIUM 149             
1 43250U 18030B   26156.09721612  .00000009  00000+0 -37843-5 0  9993
2 43250  86.3945 295.4239 0002152  93.0875 267.0567 14.34217382428425
IRIDIUM 157             
1 43251U 18030C   26156.11624346  .00000003  00000+0 -61106-5 0  9996
2 43251  86.3946 295.4686 0002080  93.1796 266.9638 14.34217403428405
IRIDIUM 140             
1 43252U 18030D   26156.13527111  .00000034  00000+0  52005-5 0  9992
2 43252  86.3950 295.4730 0002154  91.8093 268.3350 14.34217622428464
IRIDIUM 145             
1 43253U 18030E   26154.44813854  .00000067  00000+0  16917-4 0  9994
2 43253  86.3951 296.1509 0001879  94.4998 265.6412 14.34218485428157
IRIDIUM 146             
1 43254U 18030F   26156.31286328  .00000011  00000+0 -32686-5 0  9995
2 43254  86.3946 295.3834 0001957  94.3424 265.7996 14.34217514428435
IRIDIUM 148             
1 43255U 18030G   26156.14161261  .00000031  00000+0  39515-5 0  9994
2 43255  86.3952 295.4980 0002159  96.1583 263.9859 14.34217815428440
IRIDIUM 142             
1 43256U 18030H   26156.10990018  .00000031  00000+0  41238-5 0  9996
2 43256  86.3947 295.4000 0002005  95.5597 264.5827 14.34217499428402
IRIDIUM 150             
1 43257U 18030J   26154.47351181  .00000004  00000+0 -54940-5 0  9992
2 43257  86.3945 296.2012 0002043  91.6251 268.5179 14.34217435428199
IRIDIUM 143             
1 43258U 18030K   26156.12892890 -.00000016  00000+0 -12790-4 0  9994
2 43258  86.3949 295.6007 0001962  93.2728 266.8692 14.34217138428367
IRIDIUM 161             
1 43478U 18047C   26156.10542419  .00000379  00000+0  10674-3 0  9991
2 43478  86.4480  93.5224 0002467  89.1490 270.9994 14.43283289423398
IRIDIUM 152             
1 43479U 18047D   26156.10164706  .00000052  00000+0  11610-4 0  9991
2 43479  86.3955  93.3851 0002367  85.2687 274.8779 14.34217755420759
IRIDIUM 147             
1 43480U 18047E   26156.10798815  .00000053  00000+0  11739-4 0  9990
2 43480  86.3956  93.3873 0002191  84.5528 275.5917 14.34217273420754
IRIDIUM 110             
1 43481U 18047F   26155.20734152  .00000056  00000+0  13075-4 0  9993
2 43481  86.3957  93.8552 0002565  89.2196 270.9294 14.34217902420614
IRIDIUM 162             
1 43482U 18047G   26156.09912289  .00000439  00000+0  12439-3 0  9998
2 43482  86.4477  93.4160 0002375  82.7675 277.3796 14.43274907423386
IRIDIUM 160             
1 43569U 18061A   26156.26947305  .00000089  00000+0  24759-4 0  9996
2 43569  86.3968  61.7798 0002255  87.2443 272.9011 14.34218046411662
IRIDIUM 166             
1 43570U 18061B   26155.73669523  .00000039  00000+0  69623-5 0  9997
2 43570  86.3967  61.9533 0002098  84.9541 275.1894 14.34217784411617
IRIDIUM 158             
1 43571U 18061C   26156.26312970  .00000102  00000+0  29467-4 0  9990
2 43571  86.3967  61.7431 0002305  82.7823 277.3635 14.34216770411658
IRIDIUM 165             
1 43572U 18061D   26155.73034782  .00000307  00000+0  10259-3 0  9999
2 43572  86.3969  62.0118 0002100  83.8508 276.2927 14.34220416411601
IRIDIUM 155             
1 43573U 18061E   26155.76206561  .00000085  00000+0  23165-4 0  9993
2 43573  86.3965  61.8685 0002165  81.2461 278.8980 14.34217978411577
