OBJECT_NAME,OBJECT_ID,EPOCH,MEAN_MOTION,ECCENTRICITY,INCLINATION,RA_OF_ASC_NODE,ARG_OF_PERICENTER,MEAN_ANOMALY,EPHEMERIS_TYPE,CLASSIFICATION_TYPE,NORAD_CAT_ID,ELEMENT_SET_NO,REV_AT_EPOCH,BSTAR,MEAN_MOTION_DOT,MEAN_MOTION_DDOT
IRIDIUM 135,2017-083A,2026-06-03T23:10:03.145152,14.34218210,.00021804,86.3960,327.5456,90.5448,269.5998,0,U,43070,999,44225,.10173088E-4,.48E-6,0
IRIDIUM 138,2017-083B,2026-06-03T23:46:35.073408,14.34217287,.00025401,86.3952,327.2239,89.0253,271.1233,0,U,43071,999,44224,.33684327E-4,.114E-5,0
IRIDIUM 116,2017-083C,2026-06-03T12:58:06.840480,14.34218702,.00018632,86.3955,327.7086,92.8013,267.3396,0,U,43072,999,44221,.13424294E-4,.57E-6,0
IRIDIUM 130,2017-083D,2026-06-04T23:22:14.996352,14.34219459,.00019809,86.3966,327.3835,86.1851,273.9572,0,U,43073,999,44236,.76476376E-4,.234E-5,0
IRIDIUM 151,2017-083E,2026-06-03T23:19:11.104320,14.34217394,.00021742,86.3961,327.5863,92.3398,267.8046,0,U,43074,999,44224,.28654993E-4,.1E-5,0
IRIDIUM 134,2017-083F,2026-06-05T04:41:55.144032,14.34218447,.0002095,86.3960,327.0818,88.7292,271.4144,0,U,43075,999,44238,.31055884E-4,.107E-5,0
IRIDIUM 137,2017-083G,2026-06-03T12:48:58.894272,14.34218432,.00018965,86.3960,327.8694,101.3050,258.8359,0,U,43076,999,44221,.23380222E-4,.85E-6,0
IRIDIUM 141,2017-083H,2026-06-05T04:51:03.148128,14.34217276,.00020899,86.3951,327.0029,91.3451,268.7984,0,U,43077,999,44245,-.21915427E-4,-.42E-6,0
IRIDIUM 153,2017-083J,2026-06-05T02:01:43.472352,14.34217689,.00023674,86.3950,295.5319,89.9916,270.1551,0,U,43078,999,44354,.7213073E-5,.4E-6,0
IRIDIUM 131,2017-083K,2026-06-05T04:32:47.125248,14.34217469,.00020655,86.3958,327.1937,91.9715,268.1717,0,U,43079,999,44238,-.33218707E-4,-.73E-6,0
IRIDIUM 144,2018-030A,2026-06-03T11:40:07.199616,14.34218560,.00020404,86.3955,296.1314,93.0281,267.1149,0,U,43249,999,42817,.32578566E-4,.111E-5,0
IRIDIUM 149,2018-030B,2026-06-05T02:19:59.472768,14.34217382,.00021522,86.3945,295.4239,93.0875,267.0567,0,U,43250,999,42842,-.3784302E-5,.9E-7,0
IRIDIUM 157,2018-030C,2026-06-05T02:47:23.434944,14.34217403,.00020802,86.3946,295.4686,93.1796,266.9638,0,U,43251,999,42840,-.6110601E-5,.3E-7,0
IRIDIUM 140,2018-030D,2026-06-05T03:14:47.423904,14.34217622,.00021547,86.3950,295.4730,91.8093,268.3350,0,U,43252,999,42846,.5200514E-5,.34E-6,0
IRIDIUM 145,2018-030E,2026-06-03T10:45:19.169856,14.34218485,.00018795,86.3951,296.1509,94.4998,265.6412,0,U,43253,999,42815,.16917213E-4,.67E-6,0
IRIDIUM 146,2018-030F,2026-06-05T07:30:31.387392,14.34217514,.00019572,86.3946,295.3834,94.3424,265.7996,0,U,43254,999,42843,-.3268614E-5,.11E-6,0
IRIDIUM 148,2018-030G,2026-06-05T03:23:55.329504,14.34217815,.00021598,86.3952,295.4980,96.1583,263.9859,0,U,43255,999,42844,.3951536E-5,.31E-6,0
IRIDIUM 142,2018-030H,2026-06-05T02:38:15.375552,14.34217499,.00020053,86.3947,295.4000,95.5597,264.5827,0,U,43256,999,42840,.412384E-5,.31E-6,0
IRIDIUM 150,2018-030J,2026-06-03T11:21:51.420384,14.34217435,.00020432,86.3945,296.2012,91.6251,268.5179,0,U,43257,999,42819,-.5493968E-5,.4E-7,0
IRIDIUM 143,2018-030K,2026-06-05T03:05:39.456960,14.34217138,.00019621,86.3949,295.6007,93.2728,266.8692,0,U,43258,999,42836,-.12789735E-4,-.16E-6,0
IRIDIUM 161,2018-047C,2026-06-05T02:31:48.650016,14.43283289,.00024677,86.4480,93.5224,89.1490,270.9994,0,U,43478,999,42339,.10673595E-3,.379E-5,0
IRIDIUM 152,2018-047D,2026-06-05T02:26:22.305984,14.34217755,.00023679,86.3955,93.3851,85.2687,274.8779,0,U,43479,999,42075,.11610124E-4,.52E-6,0
IRIDIUM 147,2018-047E,2026-06-05T02:35:30.176160,14.34217273,.00021911,86.3956,93.3873,84.5528,275.5917,0,U,43480,999,42075,.11738859E-4,.53E-6,0
IRIDIUM 110,2018-047F,2026-06-04T04:58:34.307328,14.34217902,.00025659,86.3957,93.8552,89.2196,270.9294,0,U,43481,999,42061,.13074764E-4,.56E-6,0
IRIDIUM 162,2018-047G,2026-06-05T02:22:44.217696,14.43274907,.00023751,86.4477,93.4160,82.7675,277.3796,0,U,43482,999,42338,.12438763E-3,.439E-5,0
IRIDIUM 160,2018-061A,2026-06-05T06:28:02.471520,14.34218046,.00022553,86.3968,61.7798,87.2443,272.9011,0,U,43569,999,41166,.24759418E-4,.89E-6,0
IRIDIUM 166,2018-061B,2026-06-04T17:40:50.467872,14.34217784,.0002098,86.3967,61.9533,84.9541,275.1894,0,U,43570,999,41161,.69623E-5,.39E-6,0
IRIDIUM 158,2018-061C,2026-06-05T06:18:54.406080,14.34216770,.00023051,86.3967,61.7431,82.7823,277.3635,0,U,43571,999,41165,.29467495E-4,.102E-5,0
IRIDIUM 165,2018-061D,2026-06-04T17:31:42.051648,14.34220416,.00021,86.3969,62.0118,83.8508,276.2927,0,U,43572,999,41160,.10259E-3,.307E-5,0
IRIDIUM 155,2018-061E,2026-06-04T18:17:22.468704,14.34217978,.00021652,86.3965,61.8685,81.2461,278.8980,0,U,43573,999,41157,.23164946E-4,.85E-6,0
